start=new Date('2023-03-16T00:00:00.000Z').valueOf();
sats=[{"OBJECT_TYPE":"PAYLOAD","MEAN_ELEMENT_THEORY":"SGP4","RCS_SIZE":"LARGE","CENTER_NAME":"EARTH","PERIAPSIS":"546.473","SITE":"AFETR","EPHEMERIS_TYPE":"0","TLE_LINE1":"1 45695U 20035AQ  23074.87033769  .00003599  00000-0  26046-3 0  9995","EPOCH":"2023-03-15T20:53:17.176416","MEAN_MOTION":"15.06391759","OBJECT_ID":"2020-035AQ","REF_FRAME":"TEME","COUNTRY_CODE":"US","MEAN_MOTION_DDOT":"0.0000000000000","MEAN_ANOMALY":"281.9440","BSTAR":"0.00026046000000","TLE_LINE2":"2 45695  53.0503 248.9990 0001106  78.1673 281.9440 15.06391759154899","APOAPSIS":"548.005","OBJECT_NAME":"STARLINK-1420","LAUNCH_DATE":"2020-06-04","PERIOD":"95.593","RA_OF_ASC_NODE":"248.9990","DECAY_DATE":null,"GP_ID":"228203528","NORAD_CAT_ID":"45695","FILE":"3861599","INCLINATION":"53.0503","SEMIMAJOR_AXIS":"6925.374","ARG_OF_PERICENTER":"78.1673","MEAN_MOTION_DOT":"0.00003599","ELEMENT_SET_NO":"999","CLASSIFICATION_TYPE":"U","REV_AT_EPOCH":"15489","ECCENTRICITY":"0.00011060","TIME_SYSTEM":"UTC"},{"FILE":"3861599","NORAD_CAT_ID":"45696","INCLINATION":"53.0528","GP_ID":"228204278","DECAY_DATE":null,"RA_OF_ASC_NODE":"268.9621","PERIOD":"95.592","ECCENTRICITY":"0.00010200","TIME_SYSTEM":"UTC","REV_AT_EPOCH":"15460","CLASSIFICATION_TYPE":"U","ELEMENT_SET_NO":"999","MEAN_MOTION_DOT":"0.00008284","ARG_OF_PERICENTER":"88.9133","SEMIMAJOR_AXIS":"6925.329","TLE_LINE1":"1 45696U 20035AR  23074.88052686  .00008284  00000-0  57427-3 0  9999","SITE":"AFETR","PERIAPSIS":"546.488","EPHEMERIS_TYPE":"0","CENTER_NAME":"EARTH","RCS_SIZE":"LARGE","OBJECT_TYPE":"PAYLOAD","MEAN_ELEMENT_THEORY":"SGP4","APOAPSIS":"547.901","OBJECT_NAME":"STARLINK-1422","LAUNCH_DATE":"2020-06-04","TLE_LINE2":"2 45696  53.0528 268.9621 0001020  88.9133 271.1973 15.06406245154603","MEAN_ANOMALY":"271.1973","BSTAR":"0.00057427000000","MEAN_MOTION_DDOT":"0.0000000000000","REF_FRAME":"TEME","COUNTRY_CODE":"US","OBJECT_ID":"2020-035AR","MEAN_MOTION":"15.06406245","EPOCH":"2023-03-15T21:07:57.520704"},{"INCLINATION":"53.0507","FILE":"3861599","NORAD_CAT_ID":"45697","GP_ID":"228204529","DECAY_DATE":null,"PERIOD":"95.591","RA_OF_ASC_NODE":"248.7733","TIME_SYSTEM":"UTC","ECCENTRICITY":"0.00009660","CLASSIFICATION_TYPE":"U","REV_AT_EPOCH":"15490","MEAN_MOTION_DOT":"0.00015730","ELEMENT_SET_NO":"999","ARG_OF_PERICENTER":"84.1810","SEMIMAJOR_AXIS":"6925.279","TLE_LINE1":"1 45697U 20035AS  23074.92294987  .00015730  00000-0  10719-2 0  9993","EPHEMERIS_TYPE":"0","PERIAPSIS":"546.475","SITE":"AFETR","MEAN_ELEMENT_THEORY":"SGP4","OBJECT_TYPE":"PAYLOAD","RCS_SIZE":"LARGE","CENTER_NAME":"EARTH","TLE_LINE2":"2 45697  53.0507 248.7733 0000966  84.1810 275.9289 15.06422693154909","LAUNCH_DATE":"2020-06-04","OBJECT_NAME":"STARLINK-1351","APOAPSIS":"547.813","MEAN_MOTION_DDOT":"0.0000000000000","BSTAR":"0.00107190000000","MEAN_ANOMALY":"275.9289","OBJECT_ID":"2020-035AS","MEAN_MOTION":"15.06422693","COUNTRY_CODE":"US","REF_FRAME":"TEME","EPOCH":"2023-03-15T22:09:02.868768"},{"EPOCH":"2023-03-15T21:51:43.461216","MEAN_MOTION":"15.06407386","OBJECT_ID":"2020-035AT","COUNTRY_CODE":"US","REF_FRAME":"TEME","MEAN_MOTION_DDOT":"0.0000000000000","MEAN_ANOMALY":"276.0674","BSTAR":"0.00058820000000","TLE_LINE2":"2 45698  53.0513 248.8171 0001048  84.0434 276.0674 15.06407386154909","APOAPSIS":"547.917","OBJECT_NAME":"STARLINK-1370","LAUNCH_DATE":"2020-06-04","OBJECT_TYPE":"PAYLOAD","MEAN_ELEMENT_THEORY":"SGP4","CENTER_NAME":"EARTH","RCS_SIZE":"LARGE","PERIAPSIS":"546.465","SITE":"AFETR","EPHEMERIS_TYPE":"0","TLE_LINE1":"1 45698U 20035AT  23074.91091969  .00008492  00000-0  58820-3 0  9991","SEMIMAJOR_AXIS":"6925.326","ARG_OF_PERICENTER":"84.0434","MEAN_MOTION_DOT":"0.00008492","ELEMENT_SET_NO":"999","CLASSIFICATION_TYPE":"U","REV_AT_EPOCH":"15490","ECCENTRICITY":"0.00010480","TIME_SYSTEM":"UTC","PERIOD":"95.592","RA_OF_ASC_NODE":"248.8171","DECAY_DATE":null,"GP_ID":"228205279","NORAD_CAT_ID":"45698","FILE":"3861599","INCLINATION":"53.0513"},{"TLE_LINE1":"1 45699U 20035AU  23074.83443854  .00000629  00000-0  61093-4 0  9998","SITE":"AFETR","PERIAPSIS":"546.482","EPHEMERIS_TYPE":"0","OBJECT_TYPE":"PAYLOAD","MEAN_ELEMENT_THEORY":"SGP4","CENTER_NAME":"EARTH","RCS_SIZE":"LARGE","TLE_LINE2":"2 45699  53.0515 249.1697 0001049  84.4243 275.6865 15.06401528154888","APOAPSIS":"547.935","LAUNCH_DATE":"2020-06-04","OBJECT_NAME":"STARLINK-1398","MEAN_MOTION_DDOT":"0.0000000000000","MEAN_ANOMALY":"275.6865","BSTAR":"0.00006109300000","OBJECT_ID":"2020-035AU","MEAN_MOTION":"15.06401528","REF_FRAME":"TEME","COUNTRY_CODE":"US","EPOCH":"2023-03-15T20:01:35.489856","FILE":"3861599","NORAD_CAT_ID":"45699","INCLINATION":"53.0515","GP_ID":"228204028","DECAY_DATE":null,"PERIOD":"95.592","RA_OF_ASC_NODE":"249.1697","ECCENTRICITY":"0.00010490","TIME_SYSTEM":"UTC","CLASSIFICATION_TYPE":"U","REV_AT_EPOCH":"15488","MEAN_MOTION_DOT":"0.00000629","ELEMENT_SET_NO":"999","ARG_OF_PERICENTER":"84.4243","SEMIMAJOR_AXIS":"6925.344"},{"NORAD_CAT_ID":"45700","FILE":"3861599","INCLINATION":"53.0517","GP_ID":"228203779","DECAY_DATE":null,"PERIOD":"95.594","RA_OF_ASC_NODE":"249.1873","ECCENTRICITY":"0.00013340","TIME_SYSTEM":"UTC","CLASSIFICATION_TYPE":"U","REV_AT_EPOCH":"15488","MEAN_MOTION_DOT":"0.00014686","ELEMENT_SET_NO":"999","SEMIMAJOR_AXIS":"6925.424","ARG_OF_PERICENTER":"77.5350","TLE_LINE1":"1 45700U 20035AV  23074.83075822  .00014686  00000-0  10034-2 0  9992","PERIAPSIS":"546.365","SITE":"AFETR","EPHEMERIS_TYPE":"0","OBJECT_TYPE":"PAYLOAD","MEAN_ELEMENT_THEORY":"SGP4","RCS_SIZE":"LARGE","CENTER_NAME":"EARTH","TLE_LINE2":"2 45700  53.0517 249.1873 0001334  77.5350 282.5788 15.06375331154881","APOAPSIS":"548.213","OBJECT_NAME":"STARLINK-1400","LAUNCH_DATE":"2020-06-04","MEAN_MOTION_DDOT":"0.0000000000000","MEAN_ANOMALY":"282.5788","BSTAR":"0.00100340000000","OBJECT_ID":"2020-035AV","MEAN_MOTION":"15.06375331","COUNTRY_CODE":"US","REF_FRAME":"TEME","EPOCH":"2023-03-15T19:56:17.510208"},{"TIME_SYSTEM":"UTC","ECCENTRICITY":"0.00016490","REV_AT_EPOCH":"15482","CLASSIFICATION_TYPE":"U","ELEMENT_SET_NO":"999","MEAN_MOTION_DOT":"-0.00005532","ARG_OF_PERICENTER":"83.3060","SEMIMAJOR_AXIS":"6925.386","INCLINATION":"53.0523","FILE":"3861350","NORAD_CAT_ID":"45701","GP_ID":"228146130","DECAY_DATE":null,"RA_OF_ASC_NODE":"250.8336","PERIOD":"95.593","LAUNCH_DATE":"2020-06-04","OBJECT_NAME":"STARLINK-1403","APOAPSIS":"548.393","TLE_LINE2":"2 45701  53.0523 250.8336 0001649  83.3060 276.8116 15.06387862154821","BSTAR":"-0.00035291000000","MEAN_ANOMALY":"276.8116","MEAN_MOTION_DDOT":"0.0000000000000","COUNTRY_CODE":"US","REF_FRAME":"TEME","OBJECT_ID":"2020-035AW","MEAN_MOTION":"15.06387862","EPOCH":"2023-03-15T11:05:30.658560","TLE_LINE1":"1 45701U 20035AW  23074.46216040 -.00005532  00000-0 -35291-3 0  9996","EPHEMERIS_TYPE":"0","SITE":"AFETR","PERIAPSIS":"546.109","CENTER_NAME":"EARTH","RCS_SIZE":"LARGE","MEAN_ELEMENT_THEORY":"SGP4","OBJECT_TYPE":"PAYLOAD"},{"OBJECT_TYPE":"PAYLOAD","MEAN_ELEMENT_THEORY":"SGP4","RCS_SIZE":"LARGE","CENTER_NAME":"EARTH","SITE":"AFETR","PERIAPSIS":"546.525","EPHEMERIS_TYPE":"0","TLE_LINE1":"1 45702U 20035AX  23074.90818671  .00003146  00000-0  23003-3 0  9999","EPOCH":"2023-03-15T21:47:47.331744","MEAN_MOTION":"15.06397806","OBJECT_ID":"2020-035AX","REF_FRAME":"TEME","COUNTRY_CODE":"US","MEAN_MOTION_DDOT":"0.0000000000000","MEAN_ANOMALY":"277.9075","BSTAR":"0.00023003000000","TLE_LINE2":"2 45702  53.0521 248.8389 0001004  82.2027 277.9075 15.06397806154893","APOAPSIS":"547.916","LAUNCH_DATE":"2020-06-04","OBJECT_NAME":"STARLINK-1405","PERIOD":"95.592","RA_OF_ASC_NODE":"248.8389","DECAY_DATE":null,"GP_ID":"228204780","NORAD_CAT_ID":"45702","FILE":"3861599","INCLINATION":"53.0521","ARG_OF_PERICENTER":"82.2027","SEMIMAJOR_AXIS":"6925.355","MEAN_MOTION_DOT":"0.00003146","ELEMENT_SET_NO":"999","CLASSIFICATION_TYPE":"U","REV_AT_EPOCH":"15489","ECCENTRICITY":"0.00010040","TIME_SYSTEM":"UTC"},{"EPOCH":"2023-03-15T21:42:29.026368","REF_FRAME":"TEME","COUNTRY_CODE":"US","OBJECT_ID":"2020-035AY","MEAN_MOTION":"15.06393582","BSTAR":"0.00012206000000","MEAN_ANOMALY":"265.4189","MEAN_MOTION_DDOT":"0.0000000000000","OBJECT_NAME":"STARLINK-1407","LAUNCH_DATE":"2020-06-04","APOAPSIS":"548.040","TLE_LINE2":"2 45703  53.0529 248.8543 0001165  94.6933 265.4189 15.06393582154890","CENTER_NAME":"EARTH","RCS_SIZE":"LARGE","OBJECT_TYPE":"PAYLOAD","MEAN_ELEMENT_THEORY":"SGP4","EPHEMERIS_TYPE":"0","PERIAPSIS":"546.426","SITE":"AFETR","TLE_LINE1":"1 45703U 20035AY  23074.90450262  .00001537  00000-0  12206-3 0  9993","ARG_OF_PERICENTER":"94.6933","SEMIMAJOR_AXIS":"6925.368","ELEMENT_SET_NO":"999","MEAN_MOTION_DOT":"0.00001537","REV_AT_EPOCH":"15489","CLASSIFICATION_TYPE":"U","TIME_SYSTEM":"UTC","ECCENTRICITY":"0.00011650","RA_OF_ASC_NODE":"248.8543","PERIOD":"95.593","DECAY_DATE":null,"GP_ID":"228203529","INCLINATION":"53.0529","NORAD_CAT_ID":"45703","FILE":"3861599"},{"PERIAPSIS":"545.749","SITE":"AFETR","EPHEMERIS_TYPE":"0","CENTER_NAME":"EARTH","RCS_SIZE":"LARGE","MEAN_ELEMENT_THEORY":"SGP4","OBJECT_TYPE":"PAYLOAD","TLE_LINE1":"1 45704U 20035AZ  23074.86393459  .00013308  00000-0  91023-3 0  9996","REF_FRAME":"TEME","COUNTRY_CODE":"US","MEAN_MOTION":"15.06415772","OBJECT_ID":"2020-035AZ","EPOCH":"2023-03-15T20:44:03.948576","APOAPSIS":"548.581","OBJECT_NAME":"STARLINK-1409","LAUNCH_DATE":"2020-06-04","TLE_LINE2":"2 45704  53.0533 279.0375 0002045  89.7768 270.3455 15.06415772154475","MEAN_ANOMALY":"270.3455","BSTAR":"0.00091023000000","MEAN_MOTION_DDOT":"0.0000000000000","DECAY_DATE":null,"RA_OF_ASC_NODE":"279.0375","PERIOD":"95.591","NORAD_CAT_ID":"45704","FILE":"3861599","INCLINATION":"53.0533","GP_ID":"228204279","ELEMENT_SET_NO":"999","MEAN_MOTION_DOT":"0.00013308","ARG_OF_PERICENTER":"89.7768","SEMIMAJOR_AXIS":"6925.300","ECCENTRICITY":"0.00020450","TIME_SYSTEM":"UTC","REV_AT_EPOCH":"15447","CLASSIFICATION_TYPE":"U"}];
